[{"OBJECT_NAME":"STARLINK-31174","OBJECT_ID":"2024-012X","EPOCH":"2026-03-09T07:36:39.600000","MEAN_MOTION":15.27564523,"ECCENTRICITY":5.759e-5,"INCLINATION":42.996,"RA_OF_ASC_NODE":166.9497,"ARG_OF_PERICENTER":271.4466,"MEAN_ANOMALY":88.6319,"EPHEMERIS_TYPE":0,"CLASSIFICATION_TYPE":"U","NORAD_CAT_ID":58808,"ELEMENT_SET_NO":999,"REV_AT_EPOCH":12118,"BSTAR":-3.23741e-6,"MEAN_MOTION_DOT":-3.51e-6,"MEAN_MOTION_DDOT":0},{"OBJECT_NAME":"COSMOS 2251 DEB","OBJECT_ID":"1993-036RB","EPOCH":"2026-03-09T01:08:04.800192","MEAN_MOTION":15.30699894,"ECCENTRICITY":0.00252965,"INCLINATION":73.7308,"RA_OF_ASC_NODE":76.2904,"ARG_OF_PERICENTER":263.9966,"MEAN_ANOMALY":95.8352,"EPHEMERIS_TYPE":0,"CLASSIFICATION_TYPE":"U","NORAD_CAT_ID":34410,"ELEMENT_SET_NO":999,"REV_AT_EPOCH":91089,"BSTAR":0.003018315,"MEAN_MOTION_DOT":0.00091531,"MEAN_MOTION_DDOT":0}]
